start=new Date('2022-08-13T00:00:00.000Z').valueOf();
sats=[{"BSTAR":"0.00013377000000","TIME_SYSTEM":"UTC","OBJECT_TYPE":"PAYLOAD","MEAN_ELEMENT_THEORY":"SGP4","ARG_OF_PERICENTER":"80.1794","MEAN_ANOMALY":"279.9358","OBJECT_NAME":"STARLINK-1130","FILE":"3535519","MEAN_MOTION_DDOT":"0.0000000000000","PERIAPSIS":"546.229","APOAPSIS":"548.229","DECAY_DATE":null,"OBJECT_ID":"2020-001U","INCLINATION":"53.0549","ECCENTRICITY":"0.00014440","SITE":"AFETR","CLASSIFICATION_TYPE":"U","COUNTRY_CODE":"US","RA_OF_ASC_NODE":"84.4910","REV_AT_EPOCH":"14440","NORAD_CAT_ID":"44932","MEAN_MOTION":"15.06394813","RCS_SIZE":"LARGE","EPOCH":"2022-08-12T19:13:56.594208","EPHEMERIS_TYPE":"0","LAUNCH_DATE":"2020-01-07","MEAN_MOTION_DOT":"0.00001711","GP_ID":"210102656","TLE_LINE2":"2 44932  53.0549  84.4910 0001444  80.1794 279.9358 15.06394813144404","REF_FRAME":"TEME","ELEMENT_SET_NO":"999","TLE_LINE1":"1 44932U 20001U   22224.80134947  .00001711  00000-0  13377-3 0  9997","PERIOD":"95.592","SEMIMAJOR_AXIS":"6925.364","CENTER_NAME":"EARTH"},{"PERIOD":"95.592","CENTER_NAME":"EARTH","SEMIMAJOR_AXIS":"6925.360","LAUNCH_DATE":"2020-01-07","MEAN_MOTION_DOT":"0.00001132","TLE_LINE2":"2 44933  53.0558  84.3888 0001512  72.0949 288.0204 15.06396340144460","GP_ID":"210102906","ELEMENT_SET_NO":"999","TLE_LINE1":"1 44933U 20001V   22224.82715110  .00001132  00000-0  94890-4 0  9994","REF_FRAME":"TEME","COUNTRY_CODE":"US","REV_AT_EPOCH":"14446","RA_OF_ASC_NODE":"84.3888","RCS_SIZE":"LARGE","EPHEMERIS_TYPE":"0","EPOCH":"2022-08-12T19:51:05.855040","NORAD_CAT_ID":"44933","MEAN_MOTION":"15.06396340","SITE":"AFETR","CLASSIFICATION_TYPE":"U","ECCENTRICITY":"0.00015120","DECAY_DATE":null,"OBJECT_ID":"2020-001V","APOAPSIS":"548.272","INCLINATION":"53.0558","PERIAPSIS":"546.178","MEAN_MOTION_DDOT":"0.0000000000000","OBJECT_NAME":"STARLINK-1144","MEAN_ANOMALY":"288.0204","FILE":"3535519","BSTAR":"0.00009489000000","TIME_SYSTEM":"UTC","OBJECT_TYPE":"PAYLOAD","MEAN_ELEMENT_THEORY":"SGP4","ARG_OF_PERICENTER":"72.0949"},{"TIME_SYSTEM":"UTC","BSTAR":"0.00015017000000","MEAN_ELEMENT_THEORY":"SGP4","ARG_OF_PERICENTER":"108.6126","OBJECT_TYPE":"PAYLOAD","MEAN_ANOMALY":"251.4995","OBJECT_NAME":"STARLINK-1071","FILE":"3535519","MEAN_MOTION_DDOT":"0.0000000000000","PERIAPSIS":"546.388","APOAPSIS":"548.074","OBJECT_ID":"2020-001W","DECAY_DATE":null,"INCLINATION":"53.0563","ECCENTRICITY":"0.00012170","CLASSIFICATION_TYPE":"U","SITE":"AFETR","REV_AT_EPOCH":"14344","RA_OF_ASC_NODE":"64.6267","COUNTRY_CODE":"US","MEAN_MOTION":"15.06394333","NORAD_CAT_ID":"44934","RCS_SIZE":"LARGE","EPOCH":"2022-08-12T18:34:08.152608","EPHEMERIS_TYPE":"0","TLE_LINE2":"2 44934  53.0563  64.6267 0001217 108.6126 251.4995 15.06394333143442","GP_ID":"210104157","LAUNCH_DATE":"2020-01-07","MEAN_MOTION_DOT":"0.00001956","REF_FRAME":"TEME","TLE_LINE1":"1 44934U 20001W   22224.77370547  .00001956  00000-0  15017-3 0  9997","ELEMENT_SET_NO":"999","PERIOD":"95.592","SEMIMAJOR_AXIS":"6925.366","CENTER_NAME":"EARTH"},{"INCLINATION":"53.0557","OBJECT_ID":"2020-001Z","DECAY_DATE":null,"APOAPSIS":"548.166","PERIAPSIS":"546.267","MEAN_MOTION_DDOT":"0.0000000000000","FILE":"3535519","OBJECT_NAME":"STARLINK-1079","MEAN_ANOMALY":"271.3660","MEAN_ELEMENT_THEORY":"SGP4","ARG_OF_PERICENTER":"88.7486","OBJECT_TYPE":"PAYLOAD","TIME_SYSTEM":"UTC","BSTAR":"0.00016611000000","CENTER_NAME":"EARTH","SEMIMAJOR_AXIS":"6925.351","PERIOD":"95.592","TLE_LINE1":"1 44937U 20001Z   22224.81792689  .00002194  00000-0  16611-3 0  9996","ELEMENT_SET_NO":"999","REF_FRAME":"TEME","TLE_LINE2":"2 44937  53.0557  64.4222 0001371  88.7486 271.3660 15.06399177143457","GP_ID":"210103907","MEAN_MOTION_DOT":"0.00002194","LAUNCH_DATE":"2020-01-07","EPOCH":"2022-08-12T19:37:48.883296","RCS_SIZE":"LARGE","EPHEMERIS_TYPE":"0","MEAN_MOTION":"15.06399177","NORAD_CAT_ID":"44937","REV_AT_EPOCH":"14345","RA_OF_ASC_NODE":"64.4222","COUNTRY_CODE":"US","CLASSIFICATION_TYPE":"U","SITE":"AFETR","ECCENTRICITY":"0.00013710"},{"FILE":"3535519","MEAN_ANOMALY":"269.3846","OBJECT_NAME":"STARLINK-1082","OBJECT_TYPE":"PAYLOAD","MEAN_ELEMENT_THEORY":"SGP4","ARG_OF_PERICENTER":"90.7330","BSTAR":"0.00013664000000","TIME_SYSTEM":"UTC","INCLINATION":"53.0571","APOAPSIS":"548.333","DECAY_DATE":null,"OBJECT_ID":"2020-001AA","MEAN_MOTION_DDOT":"0.0000000000000","PERIAPSIS":"546.069","NORAD_CAT_ID":"44938","MEAN_MOTION":"15.06404067","RCS_SIZE":"LARGE","EPHEMERIS_TYPE":"0","EPOCH":"2022-08-12T18:50:02.888160","COUNTRY_CODE":"US","RA_OF_ASC_NODE":"64.5750","REV_AT_EPOCH":"14344","ECCENTRICITY":"0.00016340","CLASSIFICATION_TYPE":"U","SITE":"AFETR","SEMIMAJOR_AXIS":"6925.336","CENTER_NAME":"EARTH","PERIOD":"95.592","REF_FRAME":"TEME","ELEMENT_SET_NO":"999","TLE_LINE1":"1 44938U 20001AA  22224.78475565  .00001754  00000-0  13664-3 0  9990","LAUNCH_DATE":"2020-01-07","MEAN_MOTION_DOT":"0.00001754","GP_ID":"210103157","TLE_LINE2":"2 44938  53.0571  64.5750 0001634  90.7330 269.3846 15.06404067143441"},{"CLASSIFICATION_TYPE":"U","SITE":"AFETR","ECCENTRICITY":"0.00014570","REV_AT_EPOCH":"14344","RA_OF_ASC_NODE":"64.5316","COUNTRY_CODE":"US","EPHEMERIS_TYPE":"0","RCS_SIZE":"LARGE","EPOCH":"2022-08-12T19:00:39.924000","MEAN_MOTION":"15.06403214","NORAD_CAT_ID":"44939","TLE_LINE2":"2 44939  53.0546  64.5316 0001457  89.6834 270.4322 15.06403214143446","GP_ID":"210103406","MEAN_MOTION_DOT":"0.00003030","LAUNCH_DATE":"2020-01-07","TLE_LINE1":"1 44939U 20001AB  22224.79212875  .00003030  00000-0  22220-3 0  9992","ELEMENT_SET_NO":"999","REF_FRAME":"TEME","PERIOD":"95.592","CENTER_NAME":"EARTH","SEMIMAJOR_AXIS":"6925.339","TIME_SYSTEM":"UTC","BSTAR":"0.00022220000000","ARG_OF_PERICENTER":"89.6834","MEAN_ELEMENT_THEORY":"SGP4","OBJECT_TYPE":"PAYLOAD","OBJECT_NAME":"STARLINK-1083","MEAN_ANOMALY":"270.4322","FILE":"3535519","PERIAPSIS":"546.195","MEAN_MOTION_DDOT":"0.0000000000000","OBJECT_ID":"2020-001AB","DECAY_DATE":null,"APOAPSIS":"548.213","INCLINATION":"53.0546"},{"MEAN_MOTION_DDOT":"0.0000000000000","PERIAPSIS":"546.225","INCLINATION":"53.0544","APOAPSIS":"548.183","OBJECT_ID":"2020-001AC","DECAY_DATE":null,"ARG_OF_PERICENTER":"78.4165","MEAN_ELEMENT_THEORY":"SGP4","OBJECT_TYPE":"PAYLOAD","TIME_SYSTEM":"UTC","BSTAR":"0.00047192000000","FILE":"3535519","MEAN_ANOMALY":"281.6983","OBJECT_NAME":"STARLINK-1091","REF_FRAME":"TEME","TLE_LINE1":"1 44940U 20001AC  22224.80318959  .00006755  00000-0  47192-3 0  9998","ELEMENT_SET_NO":"999","TLE_LINE2":"2 44940  53.0544  64.4889 0001414  78.4165 281.6983 15.06403051143442","GP_ID":"210103657","LAUNCH_DATE":"2020-01-07","MEAN_MOTION_DOT":"0.00006755","SEMIMAJOR_AXIS":"6925.339","CENTER_NAME":"EARTH","PERIOD":"95.592","ECCENTRICITY":"0.00014140","SITE":"AFETR","CLASSIFICATION_TYPE":"U","MEAN_MOTION":"15.06403051","NORAD_CAT_ID":"44940","EPHEMERIS_TYPE":"0","RCS_SIZE":"LARGE","EPOCH":"2022-08-12T19:16:35.580576","REV_AT_EPOCH":"14344","RA_OF_ASC_NODE":"64.4889","COUNTRY_CODE":"US"},{"MEAN_ELEMENT_THEORY":"SGP4","ARG_OF_PERICENTER":"72.2935","OBJECT_TYPE":"PAYLOAD","TIME_SYSTEM":"UTC","BSTAR":"0.00025170000000","FILE":"3535519","OBJECT_NAME":"STARLINK-1094","MEAN_ANOMALY":"287.8196","PERIAPSIS":"546.309","MEAN_MOTION_DDOT":"0.0000000000000","INCLINATION":"53.0560","OBJECT_ID":"2020-001AD","DECAY_DATE":null,"APOAPSIS":"548.115","SITE":"AFETR","CLASSIFICATION_TYPE":"U","ECCENTRICITY":"0.00013040","EPOCH":"2022-08-12T19:48:26.292384","RCS_SIZE":"LARGE","EPHEMERIS_TYPE":"0","MEAN_MOTION":"15.06400397","NORAD_CAT_ID":"44941","RA_OF_ASC_NODE":"64.3925","REV_AT_EPOCH":"14345","COUNTRY_CODE":"US","TLE_LINE1":"1 44941U 20001AD  22224.82530431  .00003470  00000-0  25170-3 0  9995","ELEMENT_SET_NO":"999","REF_FRAME":"TEME","GP_ID":"210104408","TLE_LINE2":"2 44941  53.0560  64.3925 0001304  72.2935 287.8196 15.06400397143451","MEAN_MOTION_DOT":"0.00003470","LAUNCH_DATE":"2020-01-07","CENTER_NAME":"EARTH","SEMIMAJOR_AXIS":"6925.347","PERIOD":"95.592"},{"FILE":"3535519","MEAN_ANOMALY":"285.3649","OBJECT_NAME":"STARLINK-1096","MEAN_ELEMENT_THEORY":"SGP4","ARG_OF_PERICENTER":"74.7566","OBJECT_TYPE":"PAYLOAD","TIME_SYSTEM":"UTC","BSTAR":"0.00065987000000","INCLINATION":"53.0538","APOAPSIS":"541.990","OBJECT_ID":"2020-001AE","DECAY_DATE":null,"MEAN_MOTION_DDOT":"0.0000000000000","PERIAPSIS":"539.160","MEAN_MOTION":"15.08568598","NORAD_CAT_ID":"44942","RCS_SIZE":"LARGE","EPHEMERIS_TYPE":"0","EPOCH":"2022-08-12T19:11:14.759232","REV_AT_EPOCH":"14346","RA_OF_ASC_NODE":"63.6835","COUNTRY_CODE":"US","ECCENTRICITY":"0.00020450","CLASSIFICATION_TYPE":"U","SITE":"AFETR","SEMIMAJOR_AXIS":"6918.710","CENTER_NAME":"EARTH","PERIOD":"95.455","REF_FRAME":"TEME","TLE_LINE1":"1 44942U 20001AE  22224.79947638  .00010153  00000-0  65987-3 0  9999","ELEMENT_SET_NO":"999","TLE_LINE2":"2 44942  53.0538  63.6835 0002045  74.7566 285.3649 15.08568598143466","GP_ID":"210102657","LAUNCH_DATE":"2020-01-07","MEAN_MOTION_DOT":"0.00010153"},{"MEAN_ANOMALY":"271.2974","OBJECT_NAME":"STARLINK-1100","FILE":"3535519","BSTAR":"0.00023389000000","TIME_SYSTEM":"UTC","OBJECT_TYPE":"PAYLOAD","MEAN_ELEMENT_THEORY":"SGP4","ARG_OF_PERICENTER":"88.8175","APOAPSIS":"548.179","DECAY_DATE":null,"OBJECT_ID":"2020-001AF","INCLINATION":"53.0543","MEAN_MOTION_DDOT":"0.0000000000000","PERIAPSIS":"546.244","COUNTRY_CODE":"US","REV_AT_EPOCH":"14344","RA_OF_ASC_NODE":"64.5556","NORAD_CAT_ID":"44943","MEAN_MOTION":"15.06400725","EPHEMERIS_TYPE":"0","RCS_SIZE":"LARGE","EPOCH":"2022-08-12T18:55:21.621216","ECCENTRICITY":"0.00013970","CLASSIFICATION_TYPE":"U","SITE":"AFETR","PERIOD":"95.592","SEMIMAJOR_AXIS":"6925.346","CENTER_NAME":"EARTH","LAUNCH_DATE":"2020-01-07","MEAN_MOTION_DOT":"0.00003204","GP_ID":"210102907","TLE_LINE2":"2 44943  53.0543  64.5556 0001397  88.8175 271.2974 15.06400725143442","REF_FRAME":"TEME","ELEMENT_SET_NO":"999","TLE_LINE1":"1 44943U 20001AF  22224.78844469  .00003204  00000-0  23389-3 0  9996"}];
